1 27424U 02022A   12260.90638719  .00000511  00000-0  12335-3 0  4279
2 27424 098.2021 200.0458 0001622 071.9413 288.2153 14.57115356551725